0 DELTA 1 DEB
1 02223U 66016C   13280.27354350  .00000101  00000-0  57344-3 0  1317
2 02223 101.2664 278.3203 0093150 298.6080 182.9024 12.87596927230723
0 DELTA 1 DEB
1 02223U 66016C   13282.29332692 -.00000009  00000-0  14658-3 0  1326
2 02223 101.2663 280.3628 0093149 294.3540 185.3237 12.87598314230981
0 DELTA 1 DEB
1 02223U 66016C   13284.47668917 -.00000123  00000-0 -29378-3 0  1334
2 02223 101.2661 282.5707 0093140 289.7535 225.9986 12.87599613231261
0 DELTA 1 DEB
1 02223U 66016C   13286.70780691  .00000028  00000-0  29281-3 0  1342
2 02223 101.2660 284.8269 0093130 285.0510 128.0594 12.87598031231552
0 DELTA 1 DEB
1 02223U 66016C   13288.82077785  .00000065  00000-0  43481-3 0  1350
2 02223 101.2660 286.9633 0093117 280.5992 202.4544 12.87597991231825
0 DELTA 1 DEB
1 02223U 66016C   13291.30822229 -.00000141  00000-0 -36462-3 0  1367
2 02223 101.2665 289.4782 0093129 275.3599 212.6575 12.87600152232148
0 DELTA 1 DEB
1 02223U 66016C   13294.24772348  .00000011  00000-0  22486-3 0  1375
2 02223 101.2669 292.4504 0093135 269.1664 158.3388 12.87598602232525
